NORAD_CAT_ID,OBJECT_NAME,OBJECT_TYPE,EPOCH,MEAN_MOTION,ECCENTRICITY,INCLINATION,RA_OF_ASC_NODE,ARG_OF_PERICENTER,MEAN_ANOMALY,BSTAR,MEAN_MOTION_DOT,MEAN_MOTION_DDOT,TLE_LINE0,TLE_LINE1,TLE_LINE2,SEMIMAJOR_AXIS,PERIOD,APOGEE,PERIGEE,DECAYED
53779.0,STARLINK-4706,PAYLOAD,2024-02-01 11:47:34,15.08836855,0.0001547,53.2175,118.3218,84.4734,275.6434,2.4789e-05,1.07e-06,0.0,0 STARLINK-4706,1 53779U 22111G   24032.49137678  .00000107  00000-0  24789-4 0  9996,2 53779  53.2175 118.3218 0001547  84.4734 275.6434 15.08836855 77067,6917.89,95.438,540.825,538.685,0.0
53779.0,STARLINK-4706,PAYLOAD,2024-02-01 14:58:21,15.08839824,0.0001625,53.2182,117.7249,87.0419,273.0759,5.1865e-05,5.37e-06,0.0,0 STARLINK-4706,1 53779U 22111G   24032.62385421  .00000537  00000-0  51865-4 0  9994,2 53779  53.2182 117.7249 0001625  87.0419 273.0759 15.08839824 77890,6917.881,95.438,540.87,538.622,0.0
53779.0,STARLINK-4706,PAYLOAD,2024-02-02 11:38:21,15.08844834,0.0001874,53.2192,113.8606,79.0518,281.0685,0.00011179,1.492e-05,0.0,0 STARLINK-4706,1 53779U 22111G   24033.48496913  .00001492  00000-0  11179-3 0  9992,2 53779  53.2192 113.8606 0001874  79.0518 281.0685 15.08844834 77212,6917.866,95.437,541.027,538.434,0.0
53779.0,STARLINK-4706,PAYLOAD,2024-02-02 14:49:07,15.08847403,0.000184,53.2191,113.2638,84.4475,275.6727,0.00013037,1.788e-05,0.0,0 STARLINK-4706,1 53779U 22111G   24033.61744618  .00001788  00000-0  13037-3 0  9998,2 53779  53.2191 113.2638 0001840  84.4475 275.6727 15.08847403 78048,6917.858,95.437,540.996,538.45,0.0
53779.0,STARLINK-4706,PAYLOAD,2024-02-03 11:29:08,15.08839654,0.0001646,53.2171,109.3942,92.8187,267.2994,1.6334e-05,-2.8e-07,0.0,0 STARLINK-4706,1 53779U 22111G   24034.47857457 -.00000028  00000-0  16334-4 0  9990,2 53779  53.2171 109.3942 0001646  92.8187 267.2994 15.08839654 78173,6917.881,95.438,540.885,538.608,0.0
53779.0,STARLINK-4706,PAYLOAD,2024-02-03 14:39:55,15.08835576,0.0001857,53.2183,108.8039,99.4468,260.6735,-1.0624e-05,-4.57e-06,0.0,0 STARLINK-4706,1 53779U 22111G   24034.61105844 -.00000457  00000-0 -10624-4 0  9995,2 53779  53.2183 108.8039 0001857  99.4468 260.6735 15.08835576 77387,6917.894,95.438,541.044,538.474,0.0
53779.0,STARLINK-4706,PAYLOAD,2024-02-04 11:19:55,15.08853545,0.0001557,53.2169,104.9424,91.2004,268.9167,3.9311e-05,3.38e-06,0.0,0 STARLINK-4706,1 53779U 22111G   24035.47216522  .00000338  00000-0  39311-4 0  9996,2 53779  53.2169 104.9424 0001557  91.2004 268.9167 15.08853545 77510,6917.839,95.437,540.781,538.627,0.0
53779.0,STARLINK-4706,PAYLOAD,2024-02-05 04:49:10,15.08838075,0.0001526,53.2163,101.6722,95.7662,264.3504,4.8706e-05,4.87e-06,0.0,0 STARLINK-4706,1 53779U 22111G   24036.20081416  .00000487  00000-0  48706-4 0  9993,2 53779  53.2163 101.6722 0001526  95.7662 264.3504 15.08838075 77622,6917.886,95.438,540.807,538.696,0.0
53779.0,STARLINK-4706,PAYLOAD,2024-02-05 11:10:42,15.08843726,0.0001523,53.2161,100.4836,93.9849,266.1317,9.3437e-05,1.2e-05,0.0,0 STARLINK-4706,1 53779U 22111G   24036.46577032  .00001200  00000-0  93437-4 0  9990,2 53779  53.2161 100.4836 0001523  93.9849 266.1317 15.08843726 78472,6917.869,95.437,540.788,538.68,0.0
53779.0,STARLINK-4706,PAYLOAD,2024-02-06 09:26:06,15.08843,0.0001704,53.2174,96.3232,94.809,265.3097,1.3123e-05,-7.9e-07,0.0,0 STARLINK-4706,1 53779U 22111G   24037.39313393 -.00000079  00000-0  13123-4 0  9999,2 53779  53.2174  96.3232 0001704  94.8090 265.3097 15.08843000 77805,6917.871,95.437,540.915,538.557,0.0
53779.0,STARLINK-4706,PAYLOAD,2024-02-07 10:52:17,15.08842323,0.0001596,53.2164,91.5631,93.255,266.8625,5.8447e-05,6.42e-06,0.0,0 STARLINK-4706,1 53779U 22111G   24038.45297503  .00000642  00000-0  58447-4 0  9994,2 53779  53.2164  91.5631 0001596  93.2550 266.8625 15.08842323 77964,6917.873,95.437,540.842,538.634,0.0
53779.0,STARLINK-4706,PAYLOAD,2024-02-07 12:27:40,15.08843481,0.0001619,53.2165,91.2662,93.9754,266.1423,8.7577e-05,1.106e-05,0.0,0 STARLINK-4706,1 53779U 22111G   24038.51921384  .00001106  00000-0  87577-4 0  9994,2 53779  53.2165  91.2662 0001619  93.9754 266.1423 15.08843481 78781,6917.87,95.437,540.855,538.615,0.0
53779.0,STARLINK-4706,PAYLOAD,2024-02-07 20:24:36,15.08838135,0.0001675,53.2168,89.7771,92.5616,267.5568,-3.9582e-05,-9.18e-06,0.0,0 STARLINK-4706,1 53779U 22111G   24038.85041991 -.00000918  00000-0 -39582-4 0  9993,2 53779  53.2168  89.7771 0001675  92.5616 267.5568 15.08838135 78832,6917.886,95.438,540.91,538.592,0.0
53779.0,STARLINK-4706,PAYLOAD,2024-02-08 12:18:27,15.08839524,0.0001804,53.2174,86.8023,99.8606,260.2589,6.5727e-05,7.58e-06,0.0,0 STARLINK-4706,1 53779U 22111G   24039.51282033  .00000758  00000-0  65727-4 0  9991,2 53779  53.2174  86.8023 0001804  99.8606 260.2589 15.08839524 78937,6917.882,95.438,540.995,538.499,0.0
53779.0,STARLINK-4706,PAYLOAD,2024-02-09 02:36:56,15.08841315,0.0001454,53.2169,84.1285,100.6887,259.4269,2.4838e-05,1.07e-06,0.0,0 STARLINK-4706,1 53779U 22111G   24040.10898151  .00000107  00000-0  24838-4 0  9998,2 53779  53.2169  84.1285 0001454 100.6887 259.4269 15.08841315 78212,6917.876,95.437,540.747,538.736,0.0
53779.0,STARLINK-4706,PAYLOAD,2024-02-09 12:09:14,15.08851081,0.0001447,53.2168,82.3419,106.0209,254.0942,0.0001129,1.51e-05,0.0,0 STARLINK-4706,1 53779U 22111G   24040.50641273  .00001510  00000-0  11290-3 0  9999,2 53779  53.2168  82.3419 0001447 106.0209 254.0942 15.08851081 79086,6917.847,95.437,540.713,538.711,0.0
53779.0,STARLINK-4706,PAYLOAD,2024-02-10 02:27:43,15.08835205,0.000157,53.2169,79.6635,106.911,253.2054,8.848e-05,1.12e-05,0.0,0 STARLINK-4706,1 53779U 22111G   24041.10258463  .00001120  00000-0  88480-4 0  9994,2 53779  53.2169  79.6635 0001570 106.9110 253.2054 15.08835205 78368,6917.895,95.438,540.846,538.674,0.0
53779.0,STARLINK-4706,PAYLOAD,2024-02-10 08:49:15,15.08842491,0.0001571,53.2163,78.4775,96.5244,263.5927,8.0658e-05,9.96e-06,0.0,0 STARLINK-4706,1 53779U 22111G   24041.36754194  .00000996  00000-0  80658-4 0  9993,2 53779  53.2163  78.4775 0001571  96.5244 263.5927 15.08842491 79210,6917.873,95.437,540.825,538.651,0.0
53779.0,STARLINK-4706,PAYLOAD,2024-02-11 11:50:48,15.08850752,0.0001583,53.2167,73.42,92.0044,268.1129,6.9783e-05,8.23e-06,0.0,0 STARLINK-4706,1 53779U 22111G   24042.49361665  .00000823  00000-0  69783-4 0  9990,2 53779  53.2167  73.4200 0001583  92.0044 268.1129 15.08850752 78576,6917.848,95.437,540.808,538.617,0.0
53779.0,STARLINK-4706,PAYLOAD,2024-02-12 11:41:35,15.08848775,0.0001605,53.218,68.9558,105.0774,255.0396,5.5837e-05,6.01e-06,0.0,0 STARLINK-4706,1 53779U 22111G   24043.48721676  .00000601  00000-0  55837-4 0  9991,2 53779  53.2180  68.9558 0001605 105.0774 255.0396 15.08848775 78726,6917.854,95.437,540.829,538.608,0.0
53779.0,STARLINK-4706,PAYLOAD,2024-02-13 00:24:41,15.08832992,0.0001514,53.2174,66.5742,100.2846,259.8317,-5.3479e-05,-1.139e-05,0.0,0 STARLINK-4706,1 53779U 22111G   24044.01715130 -.00001139  00000-0 -53479-4 0  9998,2 53779  53.2174  66.5742 0001514 100.2846 259.8317 15.08832992 78802,6917.902,95.438,540.814,538.719,0.0
53779.0,STARLINK-4706,PAYLOAD,2024-02-13 11:32:23,15.0884434,0.0001398,53.2174,64.4998,99.1264,260.9886,2.8782e-05,1.7e-06,0.0,0 STARLINK-4706,1 53779U 22111G   24044.48082275  .00000170  00000-0  28782-4 0  9997,2 53779  53.2174  64.4998 0001398  99.1264 260.9886 15.08844340 78873,6917.867,95.437,540.699,538.765,0.0
53779.0,STARLINK-4706,PAYLOAD,2024-02-13 17:53:55,15.088398,0.000136,53.2166,63.3082,83.6028,276.5119,1.5644e-05,-3.9e-07,0.0,0 STARLINK-4706,1 53779U 22111G   24044.74578420 -.00000039  00000-0  15644-4 0  9996,2 53779  53.2166  63.3082 0001360  83.6028 276.5119 15.08839800 79723,6917.881,95.438,540.687,538.805,0.0
53779.0,STARLINK-4706,PAYLOAD,2024-02-14 05:01:38,15.08841185,0.0001607,53.2173,61.2295,96.2512,263.8663,-8.7918e-06,-4.28e-06,0.0,0 STARLINK-4706,1 53779U 22111G   24045.20946931 -.00000428  00000-0 -87918-5 0  9991,2 53779  53.2173  61.2295 0001607  96.2512 263.8663 15.08841185 78985,6917.877,95.437,540.853,538.63,0.0
53779.0,STARLINK-4706,PAYLOAD,2024-02-14 08:12:24,15.08844524,0.0001316,53.2166,60.6376,97.2233,262.8909,-1.5836e-05,-5.4e-06,0.0,0 STARLINK-4706,1 53779U 22111G   24045.34194675 -.00000540  00000-0 -15836-4 0  9990,2 53779  53.2166  60.6376 0001316  97.2233 262.8909 15.08844524 79813,6917.867,95.437,540.642,538.821,0.0
53779.0,STARLINK-4706,PAYLOAD,2024-02-14 17:44:43,15.08844322,0.0001482,53.2164,58.8532,92.7905,267.3256,-3.2659e-05,-8.08e-06,0.0,0 STARLINK-4706,1 53779U 22111G   24045.73938759 -.00000808  00000-0 -32659-4 0  9991,2 53779  53.2164  58.8532 0001482  92.7905 267.3256 15.08844322 79871,6917.867,95.437,540.757,538.707,0.0
53779.0,STARLINK-4706,PAYLOAD,2024-02-15 09:38:34,15.08839781,0.0001442,53.2159,55.878,95.8948,264.2208,0.00016333,2.312e-05,0.0,0 STARLINK-4706,1 53779U 22111G   24046.40179062  .00002312  00000-0  16333-3 0  9990,2 53779  53.2159  55.8780 0001442  95.8948 264.2208 15.08839781 79971,6917.881,95.438,540.744,538.748,0.0
53779.0,STARLINK-4706,PAYLOAD,2024-02-15 17:35:30,15.08845241,0.0001437,53.2158,54.3905,91.4521,268.6636,0.00014095,1.956e-05,0.0,0 STARLINK-4706,1 53779U 22111G   24046.73298807  .00001956  00000-0  14095-3 0  9991,2 53779  53.2158  54.3905 0001437  91.4521 268.6636 15.08845241 80025,6917.864,95.437,540.723,538.735,0.0
53779.0,STARLINK-4706,PAYLOAD,2024-02-16 09:29:21,15.08847553,0.000166,53.2183,51.4139,87.392,272.7263,0.00017096,2.434e-05,0.0,0 STARLINK-4706,1 53779U 22111G   24047.39538748  .00002434  00000-0  17096-3 0  9991,2 53779  53.2183  51.4139 0001660  87.3920 272.7263 15.08847553 80126,6917.857,95.437,540.871,538.574,0.0
53779.0,STARLINK-4706,PAYLOAD,2024-02-16 23:47:50,15.08831205,0.0001645,53.2187,48.7382,77.908,282.2097,-1.6457e-05,-5.5e-06,0.0,0 STARLINK-4706,1 53779U 22111G   24047.99155885 -.00000550  00000-0 -16457-4 0  9994,2 53779  53.2187  48.7382 0001645  77.9080 282.2097 15.08831205 79401,6917.907,95.438,540.91,538.634,0.0
